satname,norad_id,inclination_deg,eccentricity,mean_motion_rev_per_day,perigee_km,apogee_km,l1,l2
STARLINK-1296,45412,53.159,0.0002476,15.34142165,461.775705674394,465.1636693060391,1 45412U 20019BE  26112.72796984  .00030663  00000+0  92240-3 0  9999,2 45412  53.1590 284.1054 0002476 249.8840 110.1896 15.34142165336728
STARLINK-1309,45414,53.0634,0.0004909,15.63380958,374.5825804493661,381.2156567105876,1 45414U 20019BG  26112.72839773  .00086769  00000+0  92013-3 0  9991,2 45414  53.0634 269.4360 0004909 231.8591 128.1981 15.63380958336901
STARLINK-1316,45415,53.1563,0.0002786,15.3435845,460.9208458527082,464.7326308477159,1 45415U 20019BH  26112.77104419  .00032916  00000+0  98230-3 0  9991,2 45415  53.1563 283.9343 0002786 259.8605 100.2083 15.34358450336750
STARLINK-1286,45417,53.0476,0.0002493,15.54398251,402.211641304144,405.59316615084117,1 45417U 20019BK  26112.44172946  .00033597  00000+0  50821-3 0  9997,2 45417  53.0476 279.9333 0002493 202.2724 157.8178 15.54398251337026
STARLINK-1308,45419,53.0501,0.0005329,15.58438908,388.566635893656,395.78243392756394,1 45419U 20019BM  26111.81779945  .00063216  00000+0  81452-3 0  9996,2 45419  53.0501 303.7092 0005329 208.0706 152.0019 15.58438908336387
STARLINK-1329,45531,53.0429,0.0002806,15.67772622,363.3842912662076,367.1686949185314,1 45531U 20025A   26112.48697860  .00043162  00000+0  38883-3 0  9995,2 45531  53.0429 226.8169 0002806 355.0417   5.0570 15.67772622332301
STARLINK-1338,45532,53.0447,0.0001723,15.62575393,379.0564438672245,381.3853740026443,1 45532U 20025B   26112.62456155  .00075321  00000+0  82651-3 0  9996,2 45532  53.0447 231.1379 0001723 302.4653  57.6193 15.62575393332258
STARLINK-1350,45535,53.0711,6.29e-05,15.3717576,454.0357430857348,454.8952844819696,1 45535U 20025E   26112.49630432  .00007735  00000+0  21971-3 0  9998,2 45535  53.0711 187.2307 0000629  87.0490 273.0585 15.37175760332891
STARLINK-1362,45538,53.1615,0.0001476,15.32689495,466.7814900083795,468.8024082341599,1 45538U 20025H   26112.12507443 -.00156536  00000+0 -49812-2 0  9995,2 45538  53.1615 258.9152 0001476  82.3957 277.7213 15.32689495331831
STARLINK-1368,45540,53.1589,9e-05,15.3328419,465.40569943450737,466.6376479957762,1 45540U 20025K   26112.66028575  .00031999  00000+0  98834-3 0  9993,2 45540  53.1589 256.7886 0000900  32.3436 327.7621 15.33284190331903
STARLINK-1371,45542,53.0467,0.0003776,15.54324854,401.5549271293721,406.6768845238521,1 45542U 20025M   26112.63490837  .00056575  00000+0  85058-3 0  9997,2 45542  53.0467 238.2916 0003776 317.2316  42.8400 15.54324854332157
STARLINK-1372,45543,53.1582,0.000148,15.33677936,463.83744643903174,465.86297065276176,1 45543U 20025N   26112.69876356  .00041751  00000+0  12686-2 0  9994,2 45543  53.1582 256.2691 0001480   0.2341 359.8661 15.33677936331017
STARLINK-1373,45544,53.0466,0.0001638,15.58710153,390.2802223902045,392.4979191309849,1 45544U 20025P   26112.53624580  .00099339  00000+0  12582-2 0  9998,2 45544  53.0466 237.0456 0001638 207.0319 153.0608 15.58710153332169
STARLINK-1327,45555,53.0416,0.0003791,15.61214377,381.5845674831071,386.71173208367327,1 45555U 20025AA  26112.53386302  .00056858  00000+0  66049-3 0  9994,2 45555  53.0416 213.7265 0003791 272.3064  87.7514 15.61214377332484
STARLINK-1356,45564,53.0473,0.0002271,15.51538563,410.69120843248857,413.7753946234425,1 45564U 20025AK  26112.49586850  .00052130  00000+0  86777-3 0  9998,2 45564  53.0473 224.1897 0002271 272.3001  87.7747 15.51538563332334
STARLINK-1357,45565,53.0446,0.0007047,15.64621238,369.56983087090794,379.0867554550923,1 45565U 20025AL  26112.20624856  .00040228  00000+0  41130-3 0  9996,2 45565  53.0446 185.9430 0007047 333.8419  26.2238 15.64621238332850
STARLINK-1361,45567,53.0462,0.000142,15.54864386,401.5840140734372,403.50972829285365,1 45567U 20025AN  26112.75280278  .00060218  00000+0  88700-3 0  9999,2 45567  53.0462 222.0153 0001420 216.0143 144.0772 15.54864386332393
STARLINK-1363,45568,53.0347,0.0002924,15.90113538,300.01159533328064,303.9181188993225,1 45568U 20025AP  26112.91668980  .00167817  00000+0  53590-3 0  9990,2 45568  53.0347 174.7624 0002924  13.4773 128.7974 15.90113538  6005
STARLINK-1366,45569,53.0357,0.0002491,15.87359485,308.02329414155247,311.3551691701632,1 45569U 20025AQ  26112.91668980  .00121385  00000+0  44795-3 0  9998,2 45569  53.0357 176.0523 0002491 341.1422 187.1151 15.87359485  6051
STARLINK-1376,45570,53.157,0.0003199,15.34151598,461.2530219083501,465.63026392408847,1 45570U 20025AR  26112.62146380  .00036783  00000+0  11030-2 0  9995,2 45570  53.1570 233.1543 0003199 324.9036  35.1755 15.34151598332235
STARLINK-1320,45572,53.0449,0.0002638,15.76142941,339.6081667799808,343.1533843583702,1 45572U 20025AT  26112.34340023  .00069128  00000+0  43386-3 0  9995,2 45572  53.0449 129.0965 0002638 116.2758 243.8532 15.76142941333670
STARLINK-1321,45573,53.0461,0.0003993,15.56038556,396.42918965911394,401.84151936142644,1 45573U 20025AU  26112.47449583  .00070145  00000+0  98700-3 0  9992,2 45573  53.0461 207.6477 0003993 321.6879  38.3848 15.56038556332262
STARLINK-1331,45578,53.0487,0.0005619,15.55657188,396.4341658355552,404.05170920934233,1 45578U 20025AZ  26112.74458306  .00058906  00000+0  84264-3 0  9991,2 45578  53.0487 213.0998 0005619 299.8482  60.1969 15.55657188332520
STARLINK-1333,45580,53.1568,0.0001349,15.31261582,471.1231184281369,472.97129812753064,1 45580U 20025BB  26112.51423028  .00032183  00000+0  10587-2 0  9997,2 45580  53.1568 234.1891 0001349  31.8512 328.2571 15.31261582332210
STARLINK-1335,45581,53.1565,0.0001629,15.32748653,466.5006244433662,468.7309707048162,1 45581U 20025BC  26112.59096431  .00018710  00000+0  59349-3 0  9990,2 45581  53.1565 231.0765 0001629   9.8225 350.2808 15.32748653332253
STARLINK-1337,45582,53.0481,0.0006276,15.66895938,363.55782347907825,372.0253130179444,1 45582U 20025BD  26112.75672431  .00080709  00000+0  74483-3 0  9992,2 45582  53.0481 206.3300 0006276 311.6883  48.3595 15.66895938332600
STARLINK-1347,45586,53.0393,0.0004377,15.631582,375.5835517547848,381.49834763194576,1 45586U 20025BH  26112.47397456  .00074951  00000+0  80378-3 0  9998,2 45586  53.0393 176.5816 0004377 347.0870  13.0031 15.63158200332992
STARLINK-1364,45589,53.0464,0.000425,15.57198996,392.8890332628016,398.64685246423505,1 45589U 20025BL  26112.56331850  .00055534  00000+0  75122-3 0  9994,2 45589  53.0464 211.5582 0004250 269.3807  90.6717 15.57198996332519
STARLINK-1365,45590,53.0491,0.0003179,15.52136517,408.3311110488348,412.64731959653636,1 45590U 20025BM  26112.35436872  .00068595  00000+0  11129-2 0  9990,2 45590  53.0491 244.3958 0003179 265.9323  94.1322 15.52136517332052
STARLINK-1443,45660,53.1355,0.0001726,15.28962719,477.72833188466666,480.0953851506265,1 45660U 20035D   26112.56399874  .00035652  00000+0  12569-2 0  9999,2 45660  53.1355 221.9574 0001726 303.9686  56.1150 15.28962719325464
STARLINK-1446,45663,53.0223,0.0004087,15.44860953,429.00344907418093,434.56988067785096,1 45663U 20035G   26112.37837675  .00027672  00000+0  58710-3 0  9999,2 45663  53.0223 151.5426 0004087  43.1319 317.0006 15.44860953326424
STARLINK-1448,45665,53.0449,0.0006148,15.61773909,378.3764578716291,386.6893776024781,1 45665U 20035J   26112.74522594  .00077461  00000+0  87581-3 0  9992,2 45665  53.0449 199.0544 0006148 301.7761  58.2653 15.61773909325781
STARLINK-1451,45668,53.0526,8.22e-05,15.12251166,528.7686289961475,529.9042176269395,1 45668U 20035M   26112.59429329  .00017602  00000+0  10209-2 0  9993,2 45668  53.0526 227.4836 0000822  36.2786 323.8261 15.12251166325384
STARLINK-1452,45669,53.0277,0.000128,15.51322557,411.99436581704504,413.7328619742011,1 45669U 20035N   26112.44320311  .00052311  00000+0  87750-3 0  9991,2 45669  53.0277 172.2007 0001280 297.8573  62.2305 15.51322557326147
STARLINK-1453,45670,53.0416,0.0003072,15.62191184,379.25246660525863,383.405482500023,1 45670U 20035P   26112.27763171  .00077794  00000+0  86593-3 0  9995,2 45670  53.0416 161.7918 0003072  17.2259 342.8858 15.62191184326168
STARLINK-1454,45671,53.0465,0.0004281,15.59584096,385.96292689558595,391.75682962275096,1 45671U 20035Q   26112.56583535  .00040928  00000+0  50873-3 0  9993,2 45671  53.0465 200.5200 0004281 284.0559  75.9977 15.59584096325742
STARLINK-1456,45673,53.0435,0.0006959,15.57692769,389.62339634990167,399.04932477313014,1 45673U 20035S   26112.48511243  .00061701  00000+0  81754-3 0  9997,2 45673  53.0435 194.9511 0006959 339.8359  20.2376 15.57692769325834
STARLINK-1457,45674,53.0381,0.0004999,15.94789725,285.5675070690759,292.2332110206489,1 45674U 20035T   26112.91668980  .00256875  36788-4  65992-3 0  9998,2 45674  53.0381 158.4759 0004999 359.9987  87.0807 15.94789725  5965
STARLINK-1458,45675,53.0491,0.0005326,15.49487893,414.60338384672923,421.84286665214495,1 45675U 20035U   26112.56769397  .00048180  00000+0  86311-3 0  9993,2 45675  53.0491 206.1645 0005326 292.1686  67.8756 15.49487893325642
STARLINK-1460,45676,53.1616,0.0001572,15.3119909,471.15671066134837,473.3104671745041,1 45676U 20035V   26112.48557884  .00029843  00000+0  98480-3 0  9996,2 45676  53.1616 221.4640 0001572  14.2178 345.8868 15.31199090325425
STARLINK-1392,45677,53.152,0.0001121,15.34088497,462.8622874344437,464.3962114275655,1 45677U 20035W   26112.59755090  .00036848  00000+0  11072-2 0  9992,2 45677  53.1520 220.6201 0001121  36.1424 323.9654 15.34088497325488
STARLINK-1394,45679,53.0418,0.0007925,15.57669081,389.0377816960463,399.7722607997239,1 45679U 20035Y   26112.48228536  .00049640  00000+0  66039-3 0  9990,2 45679  53.0418 185.1879 0007925 340.8143  19.2569 15.57669081325964
STARLINK-1402,45685,53.0424,0.0007722,15.51670989,406.60372495950287,417.0901761727564,1 45685U 20035AE  26112.48134897  .00046735  00000+0  77487-3 0  9994,2 45685  53.0424 173.7469 0007722   9.3210 350.7941 15.51670989326133
